{
  "norad_id": 68814,
  "name": "STARLINK-37459",
  "history": [
    {
      "epoch": "2026-04-27T14:25:02.866368Z",
      "apogee_km": 267.16046001525956,
      "perigee_km": 264.4191758101879,
      "latitude_deg": 3.248232914145069e-05,
      "longitude_deg": -109.09055349814518,
      "height_km": 269.47203109136683,
      "semi_major_axis_km": 6643.926817912723,
      "eccentricity": 0.0002063,
      "inclination_deg": 97.2848,
      "raan_deg": 322.7596,
      "arg_perigee_deg": 110.4789,
      "mean_anomaly_deg": 249.6713,
      "mean_motion_rev_day": 16.03118042
    },
    {
      "epoch": "2026-04-29T20:00:01.999008Z",
      "apogee_km": 293.21028670299984,
      "perigee_km": 291.1424895526807,
      "latitude_deg": -56.179253823423394,
      "longitude_deg": -23.553361402810985,
      "height_km": 314.8197760728526,
      "semi_major_axis_km": 6670.31338812784,
      "eccentricity": 0.000155,
      "inclination_deg": 97.284,
      "raan_deg": 325.1795,
      "arg_perigee_deg": 97.032,
      "mean_anomaly_deg": 139.5882,
      "mean_motion_rev_day": 15.93614982
    }
  ]
}